ONEWEB-0159             
1 48062U 21025W   24326.25798423 -.00000241  00000+0 -69395-3 0  9990
2 48062  87.8922  74.1630 0001585 110.4400 249.6900 13.13469559178392
ONEWEB-0164             
1 48063U 21025X   24325.78347769  .00000232  00000+0  60033-3 0  9999
2 48063  87.8920  74.2687 0001632  94.9392 265.1923 13.13469924178319
ONEWEB-0167             
1 48064U 21025Y   24326.27039680 -.00000016  00000+0 -78211-4 0  9995
2 48064  87.8926  74.1859 0001486 108.4676 251.6614 13.13481154178360
ONEWEB-0166             
1 48065U 21025Z   24326.29131308  .00000449  00000+0  11939-2 0  9998
2 48065  87.8919  74.1587 0001712 108.5788 251.5527 13.13473255178442
ONEWEB-0151             
1 48066U 21025AA  24326.29289786  .00000198  00000+0  50757-3 0  9996
2 48066  87.8923  74.1756 0001532  98.6493 261.4810 13.13471085178385
ONEWEB-0170             
1 48067U 21025AB  24325.31052537  .00000300  00000+0  78530-3 0  9995
2 48067  87.8925  74.3748 0001832  84.8184 275.3154 13.13472548178210
ONEWEB-0168             
1 48068U 21025AC  24326.28655047  .00000342  00000+0  90176-3 0  9994
2 48068  87.8925  74.1545 0001585 104.4260 255.7045 13.13469884178358
ONEWEB-0173             
1 48069U 21025AD  24326.27861476  .00000128  00000+0  31517-3 0  9995
2 48069  87.8927  74.1655 0001149 103.6696 256.4561 13.13470697178594
